IRIDIUM 159             
1 43578U 18061K   24221.40507203  .00000063  00000+0  15259-4 0  9999
2 43578  86.4010 339.9585 0002123  92.6007 267.5432 14.34215353316237
IRIDIUM 180             
1 43922U 19002A   24221.54410862 -.00000120  00000+0 -50008-4 0  9994
2 43922  86.3942 276.7716 0002245  97.1484 262.9967 14.34216271291864
IRIDIUM 176             
1 43923U 19002B   24221.18106634  .00002216  00000+0  34729-3 0  9991
2 43923  86.6069 276.9419 0002227  97.6582 262.4888 14.72283032299499
IRIDIUM 168             
1 43924U 19002C   24221.53776563  .00000490  00000+0  16803-3 0  9990
2 43924  86.3942 276.8326 0002214  96.2654 263.8794 14.34219822291840
IRIDIUM 173             
1 43925U 19002D   24221.52508140  .00000147  00000+0  45444-4 0  9997
2 43925  86.3937 276.7544 0002214  95.4063 264.7386 14.34216513291820
IRIDIUM 169             
1 43926U 19002E   24221.57035591  .00000934  00000+0  29869-3 0  9994
2 43926  86.4242 308.3722 0004016  79.1336 281.0314 14.38617767292807
IRIDIUM 172             
1 43927U 19002F   24221.58850237  .00000465  00000+0  15884-3 0  9999
2 43927  86.3940 276.7341 0002168  92.5769 267.5675 14.34220900291849
IRIDIUM 175             
1 43928U 19002G   24220.63175754  .00001200  00000+0  18632-3 0  9991
2 43928  86.1474 247.4033 0002750  89.0513 271.1019 14.72256428299407
